SAUDISAT 1C (SO-50)     
1 27607U 02058C   26068.61742404  .00002222  00000+0  27919-3 0  9995
2 27607  64.5524  76.9957 0075248 280.7497  78.5144 14.82783142249695
STARLINK-36191          
1 67023U 25293W   26068.48649976  .00002407  00000+0  20942-3 0  9996
2 67023  70.0001  95.1187 0003450 270.4304  89.6460 14.98334349 14850
